{
    "links": {
        "self": "http://www.neowsapp.com/rest/v1/neo/3843835?api_key=iIulBulltgU6a56xZRHN4H3l9WmuAYTsLGpBGhQ2"
    },
    "id": "3843835",
    "neo_reference_id": "3843835",
    "name": "(2019 RY2)",
    "designation": "2019 RY2",
    "nasa_jpl_url": "http://ssd.jpl.nasa.gov/sbdb.cgi?sstr=3843835",
    "absolute_magnitude_h": 24.2,
    "estimated_diameter": {
        "kilometers": {
            "estimated_diameter_min": 0.0384197891,
            "estimated_diameter_max": 0.0859092601
        },
        "meters": {
            "estimated_diameter_min": 38.4197891064,
            "estimated_diameter_max": 85.9092601232
        },
        "miles": {
            "estimated_diameter_min": 0.0238729428,
            "estimated_diameter_max": 0.0533815229
        },
        "feet": {
            "estimated_diameter_min": 126.0491808919,
            "estimated_diameter_max": 281.8545369825
        }
    },
    "is_potentially_hazardous_asteroid": false,
    "close_approach_data": [
        {
            "close_approach_date": "1902-11-10",
            "close_approach_date_full": "1902-Nov-10 02:36",
            "epoch_date_close_approach": -2118864240000,
            "relative_velocity": {
                "kilometers_per_second": "16.71319112",
                "kilometers_per_hour": "60167.4880320788",
                "miles_per_hour": "37385.737216377"
            },
            "miss_distance": {
                "astronomical": "0.4314979507",
                "lunar": "167.8527028223",
                "kilometers": "64551174.334085009",
                "miles": "40110239.7946667642"
            },
            "orbiting_body": "Earth"
        },
        {
            "close_approach_date": "2019-09-06",
            "close_approach_date_full": "2019-Sep-06 20:19",
            "epoch_date_close_approach": 1567801140000,
            "relative_velocity": {
                "kilometers_per_second": "7.5406312628",
                "kilometers_per_hour": "27146.2725460572",
                "miles_per_hour": "16867.6380717432"
            },
            "miss_distance": {
                "astronomical": "0.0543081414",
                "lunar": "21.1258670046",
                "kilometers": "8124382.277098818",
                "miles": "5048257.0561989684"
            },
            "orbiting_body": "Earth"
        }
    ],
    "orbital_data": {
        "orbit_id": "3",
        "orbit_determination_date": "2019-09-16 05:54:29",
        "first_observation_date": "2019-09-07",
        "last_observation_date": "2019-09-12",
        "data_arc_in_days": 5,
        "observations_used": 23,
        "orbit_uncertainty": "8",
        "minimum_orbit_intersection": ".0332666",
        "jupiter_tisserand_invariant": "4.311",
        "epoch_osculation": "2458735.5",
        "eccentricity": ".3506304507485835",
        "semi_major_axis": "1.580536415527029",
        "inclination": "9.185356830861384",
        "ascending_node_longitude": "346.1476262620332",
        "orbital_period": "725.7803177610006",
        "perihelion_distance": "1.026352219726236",
        "perihelion_argument": "20.55675813993623",
        "aphelion_distance": "2.134720611327821",
        "perihelion_time": "2458752.395958923361",
        "mean_anomaly": "351.6193026132559",
        "mean_motion": ".4960178599367143",
        "equinox": "J2000",
        "orbit_class": {
            "orbit_class_type": "AMO",
            "orbit_class_description": "Near-Earth asteroid orbits similar to that of 1221 Amor",
            "orbit_class_range": "1.017 AU < q (perihelion) < 1.3 AU"
        }
    },
    "is_sentry_object": false
}